ONEWEB-0414             
1 50491U 21132Y   23059.47711768 -.00000072  00000+0 -19200-3 0  9993
2 50491  87.9615 214.8936 0000897  80.7928 279.3310 13.26359814 62845
ONEWEB-0414             
1 50491U 21132Y   23059.70343073  .00000116  00000+0  23289-3 0  9998
2 50491  87.9615 214.8489 0000914  81.8794 278.2446 13.26359918 64161
ONEWEB-0414             
1 50491U 21132Y   23059.85430664  .00000050  00000+0  82437-4 0  9995
2 50491  87.9615 214.8192 0000908  82.5139 277.6100 13.26359925 62892
ONEWEB-0414             
1 50491U 21132Y   23060.83499888 -.00000037  00000+0 -11369-3 0  9990
2 50491  87.9617 214.6260 0000893  85.5318 274.5920 13.26359741 64314
ONEWEB-0414             
1 50491U 21132Y   23060.91043665 -.00000019  00000+0 -71990-4 0  9994
2 50491  87.9617 214.6112 0000891  85.6447 274.4792 13.26359788 63037
ONEWEB-0414             
1 50491U 21132Y   23061.81569138 -.00000099  00000+0 -25477-3 0  9998
2 50491  87.9616 214.4327 0000827  87.3681 272.7550 13.26359281 63154
ONEWEB-0414             
1 50491U 21132Y   23062.41919240  .00000100  00000+0  19735-3 0  9999
2 50491  87.9619 214.3140 0000815  88.6822 271.4408 13.26360705 63237
ONEWEB-0414             
1 50491U 21132Y   23062.41919240  .00000100  00000+0  19735-3 0  9999
2 50491  87.9619 214.3140 0000815  88.6822 271.4408 13.26360705 64520
ONEWEB-0414             
1 50491U 21132Y   23062.87181974  .00000011  00000+0 -48137-5 0  9996
2 50491  87.9619 214.2248 0000772  89.2407 270.8818 13.26360590 63299
